{"type": "FeatureCollection", "features": [ {"type": "Feature", "properties": {"norad_id": 29795, "name": "FENGYUN 1C DEB", "group": "fengyun-1c-debris", "lat": -42.52624960885852, "lon": 137.27956735436004, "alt_km": 907.1943326155852, "timestamp": "2025-12-26T05:31:12.778883+00:00", "meta": {"OBJECT_NAME": "FENGYUN 1C DEB", "OBJECT_ID": "1999-025CM", "EPOCH": "2025-12-24T19:59:46.682016", "MEAN_MOTION": 13.92915318, "ECCENTRICITY": 0.0111225, "INCLINATION": 98.8709, "RA_OF_ASC_NODE": 127.7057, "ARG_OF_PERICENTER": 242.788, "MEAN_ANOMALY": 272.3224, "EPHEMERIS_TYPE": 0, "CLASSIFICATION_TYPE": "U", "NORAD_CAT_ID": 29795, "ELEMENT_SET_NO": 999, "REV_AT_EPOCH": 96233, "BSTAR": 0.00022846706, "MEAN_MOTION_DOT": 2.69e-06, "MEAN_MOTION_DDOT": 0}, "tle": {"line1": "1 29795U 99025CM  25358.83317919  .00000269  00000+0  22847-3 0  9993", "line2": "2 29795  98.8709 127.7057 0111225 242.7880 272.3224 13.92915318962334"}}, "geometry": {"type": "Point", "coordinates": [137.27956735436004, -42.52624960885852]}}, {"type": "Feature", "properties": {"norad_id": 29796, "name": "FENGYUN 1C DEB", "group": "fengyun-1c-debris", "lat": 18.063742002424494, "lon": -125.12831318617089, "alt_km": 837.0767089496157, "timestamp": "2025-12-26T05:31:12.778907+00:00", "meta": {"OBJECT_NAME": "FENGYUN 1C DEB", "OBJECT_ID": "1999-025CN", "EPOCH": "2025-12-25T14:12:21.074112", "MEAN_MOTION": 14.12366323, "ECCENTRICITY": 0.0052488, "INCLINATION": 98.8635, "RA_OF_ASC_NODE": 51.3235, "ARG_OF_PERICENTER": 231.2405, "MEAN_ANOMALY": 288.2994, "EPHEMERIS_TYPE": 0, "CLASSIFICATION_TYPE": "U", "NORAD_CAT_ID": 29796, "ELEMENT_SET_NO": 999, "REV_AT_EPOCH": 97242, "BSTAR": 0.00064845, "MEAN_MOTION_DOT": 1.166e-05, "MEAN_MOTION_DDOT": 0}, "tle": {"line1": "1 29796U 99025CN  25359.59191058  .00001166  00000+0  64845-3 0  9993", "line2": "2 29796  98.8635  51.3235 0052488 231.2405 288.2994 14.12366323972424"}}, "geometry": {"type": "Point", "coordinates": [-125.12831318617089, 18.063742002424494]}}, {"type": "Feature", "properties": {"norad_id": 29798, "name": "FENGYUN 1C DEB", "group": "fengyun-1c-debris", "lat": -79.8589258093894, "lon": 178.04790793129652, "alt_km": 831.6543393048287, "timestamp": "2025-12-26T05:31:12.778921+00:00", "meta": {"OBJECT_NAME": "FENGYUN 1C DEB", "OBJECT_ID": "1999-025CQ", "EPOCH": "2025-12-25T23:42:35.178624", "MEAN_MOTION": 13.996269, "ECCENTRICITY": 0.01121381, "INCLINATION": 99.2953, "RA_OF_ASC_NODE": 64.0963, "ARG_OF_PERICENTER": 236.398, "MEAN_ANOMALY": 249.6857, "EPHEMERIS_TYPE": 0, "CLASSIFICATION_TYPE": "U", "NORAD_CAT_ID": 29798, "ELEMENT_SET_NO": 999, "REV_AT_EPOCH": 96110, "BSTAR": 0.0014982985, "MEAN_MOTION_DOT": 2.265e-05, "MEAN_MOTION_DDOT": 0}, "tle": {"line1": "1 29798U 99025CQ  25359.98790716  .00002265  00000+0  14983-2 0  9992", "line2": "2 29798  99.2953  64.0963 0112138 236.3980 249.6857 13.99626900961102"}}, "geometry": {"type": "Point", "coordinates": [178.04790793129652, -79.8589258093894]}}, {"type": "Feature", "properties": {"norad_id": 29800, "name": "FENGYUN 1C DEB", "group": "fengyun-1c-debris", "lat": 22.711640547245135, "lon": 17.057978966623345, "alt_km": 992.8044592741389, "timestamp": "2025-12-26T05:31:12.778939+00:00", "meta": {"OBJECT_NAME": "FENGYUN 1C DEB", "OBJECT_ID": "1999-025CS", "EPOCH": "2025-12-25T12:58:14.687328", "MEAN_MOTION": 13.98631422, "ECCENTRICITY": 0.0133875, "INCLINATION": 98.291, "RA_OF_ASC_NODE": 19.933, "ARG_OF_PERICENTER": 191.628, "MEAN_ANOMALY": 321.744, "EPHEMERIS_TYPE": 0, "CLASSIFICATION_TYPE": "U", "NORAD_CAT_ID": 29800, "ELEMENT_SET_NO": 999, "REV_AT_EPOCH": 95755, "BSTAR": 0.0014898, "MEAN_MOTION_DOT": 2.271e-05, "MEAN_MOTION_DDOT": 0}, "tle": {"line1": "1 29800U 99025CS  25359.54044777  .00002271  00000+0  14898-2 0  9999", "line2": "2 29800  98.2910  19.9330 0133875 191.6280 321.7440 13.98631422957550"}}, "geometry": {"type": "Point", "coordinates": [17.057978966623345, 22.711640547245135]}}, {"type": "Feature", "properties": {"norad_id": 29801, "name": "FENGYUN 1C DEB", "group": "fengyun-1c-debris", "lat": -40.39865490940886, "lon": -90.90208099705383, "alt_km": 780.2349611876298, "timestamp": "2025-12-26T05:31:12.778955+00:00", "meta": {"OBJECT_NAME": "FENGYUN 1C DEB", "OBJECT_ID": "1999-025CT", "EPOCH": "2025-12-25T16:35:24.198720", "MEAN_MOTION": 14.35910873, "ECCENTRICITY": 0.01029413, "INCLINATION": 98.7951, "RA_OF_ASC_NODE": 260.9773, "ARG_OF_PERICENTER": 228.7859, "MEAN_ANOMALY": 185.7528, "EPHEMERIS_TYPE": 0, "CLASSIFICATION_TYPE": "U", "NORAD_CAT_ID": 29801, "ELEMENT_SET_NO": 999, "REV_AT_EPOCH": 99127, "BSTAR": 0.00017227, "MEAN_MOTION_DOT": 4.82e-06, "MEAN_MOTION_DDOT": 0}, "tle": {"line1": "1 29801U 99025CT  25359.69125230  .00000482  00000+0  17227-3 0  9992", "line2": "2 29801  98.7951 260.9773 0102941 228.7859 185.7528 14.35910873991278"}}, "geometry": {"type": "Point", "coordinates": [-90.90208099705383, -40.39865490940886]}}, {"type": "Feature", "properties": {"norad_id": 29802, "name": "FENGYUN 1C DEB", "group": "fengyun-1c-debris", "lat": 30.479469985592218, "lon": -64.9469896598881, "alt_km": 705.1875048035272, "timestamp": "2025-12-26T05:31:12.778970+00:00", "meta": {"OBJECT_NAME": "FENGYUN 1C DEB", "OBJECT_ID": "1999-025CU", "EPOCH": "2025-12-25T06:09:17.450208", "MEAN_MOTION": 14.62634509, "ECCENTRICITY": 0.0037452, "INCLINATION": 98.6193, "RA_OF_ASC_NODE": 108.9153, "ARG_OF_PERICENTER": 299.3166, "MEAN_ANOMALY": 126.6642, "EPHEMERIS_TYPE": 0, "CLASSIFICATION_TYPE": "U", "NORAD_CAT_ID": 29802, "ELEMENT_SET_NO": 999, "REV_AT_EPOCH": 98656, "BSTAR": 0.0029616, "MEAN_MOTION_DOT": 0.00015187, "MEAN_MOTION_DDOT": 0}, "tle": {"line1": "1 29802U 99025CU  25359.25645197  .00015187  00000+0  29616-2 0  9996", "line2": "2 29802  98.6193 108.9153 0037452 299.3166 126.6642 14.62634509986564"}}, "geometry": {"type": "Point", "coordinates": [-64.9469896598881, 30.479469985592218]}}, {"type": "Feature", "properties": {"norad_id": 29804, "name": "FENGYUN 1C DEB", "group": "fengyun-1c-debris", "lat": 2.163810335883797, "lon": -171.63562531845537, "alt_km": 875.9312374915453, "timestamp": "2025-12-26T05:31:12.778980+00:00", "meta": {"OBJECT_NAME": "FENGYUN 1C DEB", "OBJECT_ID": "1999-025CW", "EPOCH": "2025-12-25T23:48:10.937664", "MEAN_MOTION": 14.04323389, "ECCENTRICITY": 0.00970349, "INCLINATION": 98.8048, "RA_OF_ASC_NODE": 7.7979, "ARG_OF_PERICENTER": 264.408, "MEAN_ANOMALY": 150.7466, "EPHEMERIS_TYPE": 0, "CLASSIFICATION_TYPE": "U", "NORAD_CAT_ID": 29804, "ELEMENT_SET_NO": 999, "REV_AT_EPOCH": 97080, "BSTAR": -2.4457357e-05, "MEAN_MOTION_DOT": -8.4e-07, "MEAN_MOTION_DDOT": 0}, "tle": {"line1": "1 29804U 99025CW  25359.99179326 -.00000084  00000+0 -24457-4 0  9997", "line2": "2 29804  98.8048   7.7979 0097034 264.4080 150.7466 14.04323389970808"}}, "geometry": {"type": "Point", "coordinates": [-171.63562531845537, 2.163810335883797]}}, {"type": "Feature", "properties": {"norad_id": 29805, "name": "FENGYUN 1C DEB", "group": "fengyun-1c-debris", "lat": -65.07694988696588, "lon": -149.68345944212388, "alt_km": 910.4195402396444, "timestamp": "2025-12-26T05:31:12.778996+00:00", "meta": {"OBJECT_NAME": "FENGYUN 1C DEB", "OBJECT_ID": "1999-025CX", "EPOCH": "2025-12-22T09:21:33.026976", "MEAN_MOTION": 13.72660525, "ECCENTRICITY": 0.01883468, "INCLINATION": 99.4536, "RA_OF_ASC_NODE": 47.5382, "ARG_OF_PERICENTER": 204.6188, "MEAN_ANOMALY": 154.588, "EPHEMERIS_TYPE": 0, "CLASSIFICATION_TYPE": "U", "NORAD_CAT_ID": 29805, "ELEMENT_SET_NO": 999, "REV_AT_EPOCH": 94835, "BSTAR": 0.00016344227, "MEAN_MOTION_DOT": 1.26e-06, "MEAN_MOTION_DDOT": 0}, "tle": {"line1": "1 29805U 99025CX  25356.38996559  .00000126  00000+0  16344-3 0  9993", "line2": "2 29805  99.4536  47.5382 0188346 204.6188 154.5880 13.72660525948357"}}, "geometry": {"type": "Point", "coordinates": [-149.68345944212388, -65.07694988696588]}}, {"type": "Feature", "properties": {"norad_id": 29806, "name": "FENGYUN 1C DEB", "group": "fengyun-1c-debris", "lat": -19.92560331745506, "lon": -167.55025379590487, "alt_km": 837.7598909523549, "timestamp": "2025-12-26T05:31:12.779017+00:00", "meta": {"OBJECT_NAME": "FENGYUN 1C DEB", "OBJECT_ID": "1999-025CY", "EPOCH": "2025-12-25T23:44:59.531424", "MEAN_MOTION": 14.1203138, "ECCENTRICITY": 0.00280202, "INCLINATION": 98.7123, "RA_OF_ASC_NODE": 15.4026, "ARG_OF_PERICENTER": 213.4796, "MEAN_ANOMALY": 205.1423, "EPHEMERIS_TYPE": 0, "CLASSIFICATION_TYPE": "U", "NORAD_CAT_ID": 29806, "ELEMENT_SET_NO": 999, "REV_AT_EPOCH": 97326, "BSTAR": 0.00051177105, "MEAN_MOTION_DOT": 8.98e-06, "MEAN_MOTION_DDOT": 0}, "tle": {"line1": "1 29806U 99025CY  25359.98957791  .00000898  00000+0  51177-3 0  9997", "line2": "2 29806  98.7123  15.4026 0028020 213.4796 205.1423 14.12031380973266"}}, "geometry": {"type": "Point", "coordinates": [-167.55025379590487, -19.92560331745506]}}, {"type": "Feature", "properties": {"norad_id": 29807, "name": "FENGYUN 1C DEB", "group": "fengyun-1c-debris", "lat": 75.80124604370141, "lon": -138.0193930966396, "alt_km": 912.655078847717, "timestamp": "2025-12-26T05:31:12.779030+00:00", "meta": {"OBJECT_NAME": "FENGYUN 1C DEB", "OBJECT_ID": "1999-025CZ", "EPOCH": "2025-12-25T22:13:11.484768", "MEAN_MOTION": 14.08669797, "ECCENTRICITY": 0.00790667, "INCLINATION": 98.7549, "RA_OF_ASC_NODE": 4.1644, "ARG_OF_PERICENTER": 294.3478, "MEAN_ANOMALY": 64.9453, "EPHEMERIS_TYPE": 0, "CLASSIFICATION_TYPE": "U", "NORAD_CAT_ID": 29807, "ELEMENT_SET_NO": 999, "REV_AT_EPOCH": 97280, "BSTAR": 0.0002313185, "MEAN_MOTION_DOT": 3.66e-06, "MEAN_MOTION_DDOT": 0}, "tle": {"line1": "1 29807U 99025CZ  25359.92582737  .00000366  00000+0  23132-3 0  9996", "line2": "2 29807  98.7549   4.1644 0079066 294.3478  64.9453 14.08669797972808"}}, "geometry": {"type": "Point", "coordinates": [-138.0193930966396, 75.80124604370141]}}]}